CZ-4C R/B               
1 43012U 17072C   23116.88389427  .00000742  00000+0  16001-3 0  9992
2 43012  98.6518 170.7894 0127737  78.4746 283.0761 14.56685959289484
RADFXSAT (FOX-1B)       
1 43017U 17073E   23116.93395649  .00004603  00000+0  32952-3 0  9990
2 43017  97.6365   3.3059 0234163 238.2369 119.5843 14.85431473293572
EAGLESAT 1              
1 43018U 17073F   23116.92476339  .00009212  00000+0  60158-3 0  9996
2 43018  97.6425   6.7516 0217887 227.0422 131.2344 14.90564605293651
INS-1C                  
1 43116U 18004F   23117.22498948  .00044157  00000+0  87810-3 0  9995
2 43116  97.3380 197.9602 0004291 297.7998  62.2817 15.46815487294480
FLOCK 3P'-3             
1 43119U 18004J   23117.19877077  .00106304  00000+0  16530-2 0  9991
2 43119  97.3261 194.9230 0004489 284.6470  75.4286 15.53546531294300
FLOCK 3P'-2             
1 43120U 18004K   23116.50998673  .00083053  00000+0  16136-2 0  9990
2 43120  97.3347 193.1585 0004266 314.0492  46.0406 15.47320216294116
FLOCK 3P'-4             
1 43122U 18004M   23117.16708457  .00061103  00000+0  12762-2 0  9997
2 43122  97.3371 193.9817 0003604 334.6497  25.4575 15.45301813294218
PICSAT                  
1 43132U 18004X   23116.23065496  .00054533  00000+0  92819-3 0  9995
2 43132  97.3319 198.2091 0004046 295.7284  64.3550 15.51226436294472
CNUSAIL-1               
1 43133U 18004Y   23117.14739895  .00027240  00000+0  67847-3 0  9996
2 43133  97.3293 194.4834 0005175 328.7761  31.3177 15.40202937294330
2018-004Z               
1 43134U 18004Z   23117.17805131  .00045567  00000+0  90878-3 0  9999
2 43134  97.3319 197.3717 0004193 309.8135  50.2745 15.46723608294505
FOX-1D (AO-92)          
1 43137U 18004AC  23117.20583046  .00033081  00000+0  75969-3 0  9996
2 43137  97.3303 195.9729 0004598 325.6399  34.4550 15.42621955294433
STEP CUBE LAB           
1 43138U 18004AD  23117.20759926  .00375576  00000+0  17844-2 0  9994
2 43138  97.3299 205.5402 0008042 257.0394 102.9976 15.81906276295018
XIAOXIANG-2             
1 43155U 18008A   23117.14189824  .00017280  00000+0  71896-3 0  9997
2 43155  97.3038 170.9399 0015405 128.1944 317.6195 15.23717007290873
ZHOU ENLAI              
1 43156U 18008B   23117.16789428  .00019515  00000+0  80307-3 0  9996
2 43156  97.3083 171.0127 0012788 128.8338 317.2588 15.24097057290802
QUANTUTONG 1            
1 43158U 18008D   23116.94796416  .00013465  00000+0  60087-3 0  9999
2 43158  97.3036 167.9594 0012503 133.4447 349.8165 15.21428870290622
S-NET D                 
1 43186U 18014G   23117.49517794  .00004217  00000+0  34209-3 0  9990
2 43186  97.6442  22.2191 0011677 339.2886  20.7863 15.00143558285951
S-NET B                 
1 43187U 18014H   23117.49595328  .00004077  00000+0  33098-3 0  9999
2 43187  97.6437  22.1552 0011734 337.8893  22.1823 15.00136830285959
