[{"OBJECT_NAME":"CZ-4C R\/B","OBJECT_ID":"2017-072C","EPOCH":"2023-04-26T21:12:48.464928","MEAN_MOTION":14.56685959,"ECCENTRICITY":0.0127737,"INCLINATION":98.6518,"RA_OF_ASC_NODE":170.7894,"ARG_OF_PERICENTER":78.4746,"MEAN_ANOMALY":283.0761,"EPHEMERIS_TYPE":0,"CLASSIFICATION_TYPE":"U","NORAD_CAT_ID":43012,"ELEMENT_SET_NO":999,"REV_AT_EPOCH":28948,"BSTAR":0.00016001,"MEAN_MOTION_DOT":7.42e-6,"MEAN_MOTION_DDOT":0},{"OBJECT_NAME":"RADFXSAT (FOX-1B)","OBJECT_ID":"2017-073E","EPOCH":"2023-04-26T22:24:53.840736","MEAN_MOTION":14.85431473,"ECCENTRICITY":0.0234163,"INCLINATION":97.6365,"RA_OF_ASC_NODE":3.3059,"ARG_OF_PERICENTER":238.2369,"MEAN_ANOMALY":119.5843,"EPHEMERIS_TYPE":0,"CLASSIFICATION_TYPE":"U","NORAD_CAT_ID":43017,"ELEMENT_SET_NO":999,"REV_AT_EPOCH":29357,"BSTAR":0.00032952,"MEAN_MOTION_DOT":4.603e-5,"MEAN_MOTION_DDOT":0},{"OBJECT_NAME":"EAGLESAT 1","OBJECT_ID":"2017-073F","EPOCH":"2023-04-26T22:11:39.556896","MEAN_MOTION":14.90564605,"ECCENTRICITY":0.0217887,"INCLINATION":97.6425,"RA_OF_ASC_NODE":6.7516,"ARG_OF_PERICENTER":227.0422,"MEAN_ANOMALY":131.2344,"EPHEMERIS_TYPE":0,"CLASSIFICATION_TYPE":"U","NORAD_CAT_ID":43018,"ELEMENT_SET_NO":999,"REV_AT_EPOCH":29365,"BSTAR":0.00060158,"MEAN_MOTION_DOT":9.212e-5,"MEAN_MOTION_DDOT":0},{"OBJECT_NAME":"INS-1C","OBJECT_ID":"2018-004F","EPOCH":"2023-04-27T05:23:59.091072","MEAN_MOTION":15.46815487,"ECCENTRICITY":0.0004291,"INCLINATION":97.338,"RA_OF_ASC_NODE":197.9602,"ARG_OF_PERICENTER":297.7998,"MEAN_ANOMALY":62.2817,"EPHEMERIS_TYPE":0,"CLASSIFICATION_TYPE":"U","NORAD_CAT_ID":43116,"ELEMENT_SET_NO":999,"REV_AT_EPOCH":29448,"BSTAR":0.0008781,"MEAN_MOTION_DOT":0.00044157,"MEAN_MOTION_DDOT":0},{"OBJECT_NAME":"FLOCK 3P'-3","OBJECT_ID":"2018-004J","EPOCH":"2023-04-27T04:46:13.794528","MEAN_MOTION":15.53546531,"ECCENTRICITY":0.0004489,"INCLINATION":97.3261,"RA_OF_ASC_NODE":194.923,"ARG_OF_PERICENTER":284.647,"MEAN_ANOMALY":75.4286,"EPHEMERIS_TYPE":0,"CLASSIFICATION_TYPE":"U","NORAD_CAT_ID":43119,"ELEMENT_SET_NO":999,"REV_AT_EPOCH":29430,"BSTAR":0.001653,"MEAN_MOTION_DOT":0.00106304,"MEAN_MOTION_DDOT":0},{"OBJECT_NAME":"FLOCK 3P'-2","OBJECT_ID":"2018-004K","EPOCH":"2023-04-26T12:14:22.853472","MEAN_MOTION":15.47320216,"ECCENTRICITY":0.0004266,"INCLINATION":97.3347,"RA_OF_ASC_NODE":193.1585,"ARG_OF_PERICENTER":314.0492,"MEAN_ANOMALY":46.0406,"EPHEMERIS_TYPE":0,"CLASSIFICATION_TYPE":"U","NORAD_CAT_ID":43120,"ELEMENT_SET_NO":999,"REV_AT_EPOCH":29411,"BSTAR":0.0016136,"MEAN_MOTION_DOT":0.00083053,"MEAN_MOTION_DDOT":0},{"OBJECT_NAME":"FLOCK 3P'-4","OBJECT_ID":"2018-004M","EPOCH":"2023-04-27T04:00:36.106848","MEAN_MOTION":15.45301813,"ECCENTRICITY":0.0003604,"INCLINATION":97.3371,"RA_OF_ASC_NODE":193.9817,"ARG_OF_PERICENTER":334.6497,"MEAN_ANOMALY":25.4575,"EPHEMERIS_TYPE":0,"CLASSIFICATION_TYPE":"U","NORAD_CAT_ID":43122,"ELEMENT_SET_NO":999,"REV_AT_EPOCH":29421,"BSTAR":0.0012762,"MEAN_MOTION_DOT":0.00061103,"MEAN_MOTION_DDOT":0},{"OBJECT_NAME":"PICSAT","OBJECT_ID":"2018-004X","EPOCH":"2023-04-26T05:32:08.588544","MEAN_MOTION":15.51226436,"ECCENTRICITY":0.0004046,"INCLINATION":97.3319,"RA_OF_ASC_NODE":198.2091,"ARG_OF_PERICENTER":295.7284,"MEAN_ANOMALY":64.355,"EPHEMERIS_TYPE":0,"CLASSIFICATION_TYPE":"U","NORAD_CAT_ID":43132,"ELEMENT_SET_NO":999,"REV_AT_EPOCH":29447,"BSTAR":0.00092819,"MEAN_MOTION_DOT":0.00054533,"MEAN_MOTION_DDOT":0},{"OBJECT_NAME":"CNUSAIL-1","OBJECT_ID":"2018-004Y","EPOCH":"2023-04-27T03:32:15.269280","MEAN_MOTION":15.40202937,"ECCENTRICITY":0.0005175,"INCLINATION":97.3293,"RA_OF_ASC_NODE":194.4834,"ARG_OF_PERICENTER":328.7761,"MEAN_ANOMALY":31.3177,"EPHEMERIS_TYPE":0,"CLASSIFICATION_TYPE":"U","NORAD_CAT_ID":43133,"ELEMENT_SET_NO":999,"REV_AT_EPOCH":29433,"BSTAR":0.00067847,"MEAN_MOTION_DOT":0.0002724,"MEAN_MOTION_DDOT":0},{"OBJECT_NAME":"2018-004Z","OBJECT_ID":"2018-004Z","EPOCH":"2023-04-27T04:16:23.633184","MEAN_MOTION":15.46723608,"ECCENTRICITY":0.0004193,"INCLINATION":97.3319,"RA_OF_ASC_NODE":197.3717,"ARG_OF_PERICENTER":309.8135,"MEAN_ANOMALY":50.2745,"EPHEMERIS_TYPE":0,"CLASSIFICATION_TYPE":"U","NORAD_CAT_ID":43134,"ELEMENT_SET_NO":999,"REV_AT_EPOCH":29450,"BSTAR":0.00090878,"MEAN_MOTION_DOT":0.00045567,"MEAN_MOTION_DDOT":0},{"OBJECT_NAME":"FOX-1D (AO-92)","OBJECT_ID":"2018-004AC","EPOCH":"2023-04-27T04:56:23.751744","MEAN_MOTION":15.42621955,"ECCENTRICITY":0.0004598,"INCLINATION":97.3303,"RA_OF_ASC_NODE":195.9729,"ARG_OF_PERICENTER":325.6399,"MEAN_ANOMALY":34.455,"EPHEMERIS_TYPE":0,"CLASSIFICATION_TYPE":"U","NORAD_CAT_ID":43137,"ELEMENT_SET_NO":999,"REV_AT_EPOCH":29443,"BSTAR":0.00075969,"MEAN_MOTION_DOT":0.00033081,"MEAN_MOTION_DDOT":0},{"OBJECT_NAME":"STEP CUBE LAB","OBJECT_ID":"2018-004AD","EPOCH":"2023-04-27T04:58:56.576064","MEAN_MOTION":15.81906276,"ECCENTRICITY":0.0008042,"INCLINATION":97.3299,"RA_OF_ASC_NODE":205.5402,"ARG_OF_PERICENTER":257.0394,"MEAN_ANOMALY":102.9976,"EPHEMERIS_TYPE":0,"CLASSIFICATION_TYPE":"U","NORAD_CAT_ID":43138,"ELEMENT_SET_NO":999,"REV_AT_EPOCH":29501,"BSTAR":0.0017844,"MEAN_MOTION_DOT":0.00375576,"MEAN_MOTION_DDOT":0},{"OBJECT_NAME":"XIAOXIANG-2","OBJECT_ID":"2018-008A","EPOCH":"2023-04-27T03:24:20.007936","MEAN_MOTION":15.23717007,"ECCENTRICITY":0.0015405,"INCLINATION":97.3038,"RA_OF_ASC_NODE":170.9399,"ARG_OF_PERICENTER":128.1944,"MEAN_ANOMALY":317.6195,"EPHEMERIS_TYPE":0,"CLASSIFICATION_TYPE":"U","NORAD_CAT_ID":43155,"ELEMENT_SET_NO":999,"REV_AT_EPOCH":29087,"BSTAR":0.00071896,"MEAN_MOTION_DOT":0.0001728,"MEAN_MOTION_DDOT":0},{"OBJECT_NAME":"ZHOU ENLAI","OBJECT_ID":"2018-008B","EPOCH":"2023-04-27T04:01:46.065792","MEAN_MOTION":15.24097057,"ECCENTRICITY":0.0012788,"INCLINATION":97.3083,"RA_OF_ASC_NODE":171.0127,"ARG_OF_PERICENTER":128.8338,"MEAN_ANOMALY":317.2588,"EPHEMERIS_TYPE":0,"CLASSIFICATION_TYPE":"U","NORAD_CAT_ID":43156,"ELEMENT_SET_NO":999,"REV_AT_EPOCH":29080,"BSTAR":0.00080307,"MEAN_MOTION_DOT":0.00019515,"MEAN_MOTION_DDOT":0},{"OBJECT_NAME":"QUANTUTONG 1","OBJECT_ID":"2018-008D","EPOCH":"2023-04-26T22:45:04.103424","MEAN_MOTION":15.2142887,"ECCENTRICITY":0.0012503,"INCLINATION":97.3036,"RA_OF_ASC_NODE":167.9594,"ARG_OF_PERICENTER":133.4447,"MEAN_ANOMALY":349.8165,"EPHEMERIS_TYPE":0,"CLASSIFICATION_TYPE":"U","NORAD_CAT_ID":43158,"ELEMENT_SET_NO":999,"REV_AT_EPOCH":29062,"BSTAR":0.00060087,"MEAN_MOTION_DOT":0.00013465,"MEAN_MOTION_DDOT":0},{"OBJECT_NAME":"S-NET D","OBJECT_ID":"2018-014G","EPOCH":"2023-04-27T11:53:03.374016","MEAN_MOTION":15.00143558,"ECCENTRICITY":0.0011677,"INCLINATION":97.6442,"RA_OF_ASC_NODE":22.2191,"ARG_OF_PERICENTER":339.2886,"MEAN_ANOMALY":20.7863,"EPHEMERIS_TYPE":0,"CLASSIFICATION_TYPE":"U","NORAD_CAT_ID":43186,"ELEMENT_SET_NO":999,"REV_AT_EPOCH":28595,"BSTAR":0.00034209,"MEAN_MOTION_DOT":4.217e-5,"MEAN_MOTION_DDOT":0},{"OBJECT_NAME":"S-NET B","OBJECT_ID":"2018-014H","EPOCH":"2023-04-27T11:54:10.363392","MEAN_MOTION":15.0013683,"ECCENTRICITY":0.0011734,"INCLINATION":97.6437,"RA_OF_ASC_NODE":22.1552,"ARG_OF_PERICENTER":337.8893,"MEAN_ANOMALY":22.1823,"EPHEMERIS_TYPE":0,"CLASSIFICATION_TYPE":"U","NORAD_CAT_ID":43187,"ELEMENT_SET_NO":999,"REV_AT_EPOCH":28595,"BSTAR":0.00033098,"MEAN_MOTION_DOT":4.077e-5,"MEAN_MOTION_DDOT":0}]
